{
  "type": "Feature",
  "properties": {
    "name": "Nashik District",
    "state": "Maharashtra",
    "country": "India"
  },
  "geometry": {
    "type": "Polygon",
    "coordinates": [[
      [73.40, 20.30],
      [73.55, 20.45],
      [73.75, 20.55],
      [74.00, 20.55],
      [74.20, 20.45],
      [74.30, 20.25],
      [74.30, 19.95],
      [74.20, 19.70],
      [74.00, 19.55],
      [73.85, 19.50],
      [73.65, 19.55],
      [73.50, 19.65],
      [73.40, 19.85],
      [73.35, 20.10],
      [73.40, 20.30]
    ]]
  }
}